*******************************************************************************
 Revised: June 21, 2016                 Mars                            499 / 4
 
 PHYSICAL DATA (updated 2019-Oct-29):
  Vol. mean radius (km) = 3389.92+-0.04   Density (g/cm^3)      =  3.933(5+-4)
  Mass x10^23 (kg)      =    6.4171       Flattening, f         =  1/169.779
  Volume (x10^10 km^3)  =   16.318        Equatorial radius (km)=  3396.19
  Sidereal rot. period  =   24.622962 hr  Sid. rot. rate, rad/s =  0.0000708822 
  Mean solar day (sol)  =   88775.24415 s Polar gravity m/s^2   =  3.758
  Core radius (km)      = ~1700           Equ. gravity  m/s^2   =  3.71
  Geometric Albedo      =    0.150                                              

  GM (km^3/s^2)         = 42828.375214    Mass ratio (Sun/Mars) = 3098703.59
  GM 1-sigma (km^3/s^2) = +- 0.00028      Mass of atmosphere, kg= ~ 2.5 x 10^16
  Mean temperature (K)  =  210            Atmos. pressure (bar) =    0.0056 
  Obliquity to orbit    =   25.19 deg     Max. angular diam.    =  17.9"
  Mean sidereal orb per =    1.88081578 y Visual mag. V(1,0)    =  -1.52
  Mean sidereal orb per =  686.98 d       Orbital speed,  km/s  =  24.13
  Hill's sphere rad. Rp =  319.8          Escape speed, km/s    =   5.027
                                 Perihelion  Aphelion    Mean
  Solar Constant (W/m^2)         717         493         589
  Maximum Planetary IR (W/m^2)   470         315         390
  Minimum Planetary IR (W/m^2)    30          30          30
*******************************************************************************


*******************************************************************************
Ephemeris / WWW_USER Sun Nov 17 05:43:06 2024 Pasadena, USA      / Horizons    
*******************************************************************************
Target body name: Mars (499)                      {source: mar097}
Center body name: Earth (399)                     {source: DE441}
Center-site name: (user defined site below)
*******************************************************************************
Start time      : A.D. 2022-Oct-01 21:00:00.0000 UT      
Stop  time      : A.D. 2023-Jan-01 21:00:00.0000 UT      
Step-size       : 1440 minutes
*******************************************************************************
Target pole/equ : IAU_MARS                        {West-longitude positive}
Target radii    : 3396.19, 3396.19, 3376.2 km     {Equator_a, b, pole_c}       
Center geodetic : 121.6333, 25.0333, 1.72871E-12  {E-lon(deg),Lat(deg),Alt(km)}
Center cylindric: 121.6333,5782.45421,2682.41715  {E-lon(deg),Dxy(km),Dz(km)}
Center pole/equ : ITRF93                          {East-longitude positive}
Center radii    : 6378.137, 6378.137, 6356.752 km {Equator_a, b, pole_c}       
Target primary  : Sun
Vis. interferer : MOON (R_eq= 1737.400) km        {source: DE441}
Rel. light bend : Sun                             {source: DE441}
Rel. lght bnd GM: 1.3271E+11 km^3/s^2                                          
Atmos refraction: NO (AIRLESS)
RA format       : HMS
Time format     : CAL 
Calendar mode   : Mixed Julian/Gregorian
EOP file        : eop.241115.p250211                                           
EOP coverage    : DATA-BASED 1962-JAN-20 TO 2024-NOV-15. PREDICTS-> 2025-FEB-10
Units conversion: 1 au= 149597870.700 km, c= 299792.458 km/s, 1 day= 86400.0 s 
Table cut-offs 1: Elevation (-90.0deg=NO ),Airmass (>38.000=NO), Daylight (NO )
Table cut-offs 2: Solar elongation (  0.0,180.0=NO ),Local Hour Angle( 0.0=NO )
Table cut-offs 3: RA/DEC angular rate (     0.0=NO )                           
Table format    : Comma Separated Values (spreadsheet)
***************************************************************************************************************************************************************************************************************************************************************************************************************************
 Date__(UT)__HR:MN, , , R.A._(ICRF), DEC__(ICRF), Azi_(a-app), Elev_(a-app),  dAZ*cosE, d(ELV)/dt,    APmag,  S-brt,    NP.ang,  NP.dist,             delta,     deldot,     S-O-T,/r,     S-T-O,     ObsEcLon,   ObsEcLat,  RA_(ICRF-a-app), DEC_(ICRF-a-app),  Sky_motion, Sky_mot_PA, RelVel-ANG,  Lun_Sky_Brt, sky_SNR,
***************************************************************************************************************************************************************************************************************************************************************************************************************************
$$SOE
 2022-Nov-04 21:00,A, , 05 38 28.82, +24 02 11.8,  275.953629,    57.562793,    133.38,   -813.50,   -1.318,  4.314,  331.3036,    7.716,  0.60328177137077, -6.7835666,  137.0113,/L,   26.9748,   85.4072616,  0.6919633,      05 38 29.95,      +24 02 12.3,   0.2639973,  292.27297,  -74.15642,         n.a.,    n.a.,
 2022-Nov-05 21:00,A, , 05 38 06.10, +24 04 54.7,  276.331472,    56.597185,    135.09,   -812.96,   -1.332,  4.318,  331.2647,    7.768,  0.59928657337691, -6.5965501,  138.0970,/L,   26.3464,   85.3226524,  0.7404408,      05 38 07.25,      +24 04 55.2,   0.2976963,  289.48842,  -71.89685,         n.a.,    n.a.,
 2022-Nov-06 21:00,A, , 05 37 39.51, +24 07 37.0,  276.707624,    55.617860,    136.98,   -812.39,   -1.347,  4.319,  331.2192,    7.818,  0.59539785928519, -6.4032623,  139.1978,/L,   25.7044,   85.2234076,  0.7893692,      05 37 40.68,      +24 07 37.5,   0.3318958,  287.24948,  -69.54293,         n.a.,    n.a.,
 2022-Nov-07 21:00,A,m, 05 37 09.05, +24 10 18.5,  277.082521,    54.624865,    139.03,   -811.78,   -1.368,  4.315,  331.1671,    7.868,  0.59161929947729, -6.2035392,  140.3135,/L,   25.0488,   85.1095342,  0.8387191,      05 37 10.24,      +24 10 19.0,   0.3664040,  285.40769,  -67.10202,        2.620,   1.646,
 2022-Nov-08 21:00,A,m, 05 36 34.72, +24 12 58.8,  277.456567,    53.618268,    141.24,   -811.14,   -1.387,  4.312,  331.1085,    7.917,  0.58795466674546, -5.9972039,  141.4441,/L,   24.3797,   84.9810557,  0.8884581,      05 36 35.94,      +24 12 59.4,   0.4010704,  283.86215,  -64.57923,        3.421,   1.260,
 2022-Nov-09 21:00,A,m, 05 35 56.54, +24 15 37.8,  277.830138,    52.598160,    143.62,   -810.47,   -1.398,  4.317,  331.0433,   -7.965,  0.58440784022806, -5.7840794,  142.5897,/L,   23.6970,   84.8380148,  0.9385512,      05 35 57.77,      +24 15 38.4,   0.4357663,  282.54235,  -61.97857,        3.487,   1.238,
 2022-Nov-10 21:00,A,m, 05 35 14.51, +24 18 15.1,  278.203581,    51.564656,    146.16,   -809.76,   -1.415,  4.316,  330.9716,   -8.012,  0.58098280232893, -5.5639999,  143.7501,/L,   23.0008,   84.6804776,  0.9889609,      05 35 15.76,      +24 18 15.7,   0.4703741,  281.39783,  -59.30351,        3.711,   1.163,
 2022-Nov-11 21:00,A,m, 05 34 28.66, +24 20 50.5,  278.577219,    50.517903,    148.86,   -809.02,   -1.446,  4.299,  330.8936,   -8.058,  0.57768362952085, -5.3368204,  144.9252,/L,   22.2913,   84.5085382,  1.0396473,      05 34 29.92,      +24 20 51.1,   0.5047816,  280.39161,  -56.55744,        3.672,   1.171,
 2022-Nov-12 21:00,A,m, 05 33 39.01, +24 23 23.5,  278.951350,    49.458079,    151.72,   -808.24,   -1.474,  4.286,  330.8092,   -8.102,  0.57451447871748, -5.1024222,  146.1149,/L,   21.5687,   84.3223219,  1.0905682,      05 33 40.30,      +24 23 24.1,   0.5388784,  279.49602,  -53.74387,        2.952,   1.452,
 2022-Nov-13 21:00,A,m, 05 32 45.62, +24 25 53.8,  279.326250,    48.385397,    154.73,   -807.42,   -1.507,  4.267,  330.7188,   -8.145,  0.57147957116995, -4.8607160,  147.3189,/L,   20.8330,   84.1219893,  1.1416788,      05 32 46.92,      +24 25 54.5,   0.5725548,  278.69000,  -50.86654,        2.309,   1.848,
 2022-Nov-14 21:00,A,m, 05 31 48.53, +24 28 21.0,  279.702175,    47.300109,    157.89,   -806.57,   -1.537,  4.251,  330.6223,   -8.186,  0.56858317562053, -4.6116420,  148.5371,/L,   20.0845,   83.9077384,  1.1929321,      05 31 49.85,      +24 28 21.8,   0.6057002,  277.95722,  -47.92953,        1.748,   2.431,
 2022-Nov-15 21:00,A,m, 05 30 47.80, +24 30 44.9,  280.079364,    46.202503,    161.21,   -805.67,   -1.565,  4.236,  330.5199,   -8.226,  0.56582959189236, -4.3551682,  149.7692,/L,   19.3235,   83.6798074,  1.2442787,      05 30 49.14,      +24 30 45.7,   0.6382033,  277.28487,  -44.93728,        1.262,   3.356,
 2022-Nov-16 21:00,A,m, 05 29 43.51, +24 33 04.9,  280.458039,    45.092913,    164.68,   -804.74,   -1.575,  4.238,  330.4119,   -8.264,  0.56322313539530, -4.0912888,  151.0148,/L,   18.5503,   83.4384760,  1.2956671,      05 29 44.86,      +24 33 05.7,   0.6699513,  276.66279,  -41.89458,        0.856,   4.953,
 2022-Nov-17 21:00,A,m, 05 28 35.74, +24 35 20.7,  280.838405,    43.971711,    168.29,   -803.77,   -1.588,  4.237,  330.2985,   -8.299,  0.56076812228823, -3.8200240,  152.2735,/L,   17.7652,   83.1840678,  1.3470436,      05 28 37.11,      +24 35 21.6,   0.7008294,  276.08281,  -38.80661,        0.544,   7.794,
 2022-Nov-18 21:00,A,m, 05 27 24.59, +24 37 31.9,  281.220656,    42.839317,    172.05,   -802.75,   -1.622,  4.215,  330.1798,   -8.333,  0.55846885427834, -3.5414217,  153.5450,/L,   16.9687,   82.9169515,  1.3983528,      05 27 25.97,      +24 37 32.8,   0.7307202,  275.53837,  -35.67890,        0.328,  12.865,
 2022-Nov-19 21:00,A,m, 05 26 10.16, +24 39 38.0,  281.604969,    41.696193,    175.95,   -801.70,   -1.651,  4.196,  330.0562,   -8.364,  0.55632960126204, -3.2555631,  154.8287,/L,   16.1611,   82.6375435,  1.4495375,      05 26 11.56,      +24 39 39.0,   0.7595033,  275.02412,  -32.51736,        0.187,  22.466,
 2022-Nov-20 21:00,A,m, 05 24 52.58, +24 41 38.8,  281.991513,    40.542854,    180.00,   -800.60,   -1.664,  4.192,  329.9279,   -8.393,  0.55435457932162, -2.9625734,  156.1241,/L,   15.3431,   82.3463092,  1.5005390,      05 24 53.99,      +24 41 39.8,   0.7870550,  274.53575,  -29.32824,        0.094,  44.390,
